OBJECT_NAME,OBJECT_ID,EPOCH,MEAN_MOTION,ECCENTRICITY,INCLINATION,RA_OF_ASC_NODE,ARG_OF_PERICENTER,MEAN_ANOMALY,EPHEMERIS_TYPE,CLASSIFICATION_TYPE,NORAD_CAT_ID,ELEMENT_SET_NO,REV_AT_EPOCH,BSTAR,MEAN_MOTION_DOT,MEAN_MOTION_DDOT
STARLINK-5106,2022-177D,2026-05-22T04:08:52.818720,15.27575296,.00010019,43.0029,80.8952,256.1284,103.9456,0,U,54823,999,18816,.20556517E-4,.304E-5,0
STARLINK-4643,2022-177E,2026-05-22T02:40:16.580064,15.27577706,.00004717,43.0035,81.2937,230.2296,129.8514,0,U,54824,999,18815,.20822624E-4,.311E-5,0
STARLINK-5107,2022-177G,2026-05-22T04:34:46.928352,15.27575975,.00009077,43.0016,81.0248,258.9360,101.1390,0,U,54826,999,18816,.4064697E-5,-.15E-5,0
STARLINK-5383,2022-177H,2026-05-22T04:45:56.550816,15.27545983,.00014138,43.0013,81.0844,269.6387,90.4303,0,U,54827,999,18816,-.16596984E-3,-.4821E-4,0
STARLINK-5381,2022-177J,2026-05-22T03:17:16.740384,15.27575380,.0000632,43.0036,81.4825,256.9924,103.0857,0,U,54828,999,18815,.10484045E-4,.27E-6,0
STARLINK-5394,2022-177L,2026-05-22T05:06:13.732416,15.27536709,.00011956,43.0047,81.1889,270.5212,89.5503,0,U,54830,999,18816,.27553953E-3,.7318E-4,0
STARLINK-5395,2022-177M,2026-05-22T04:25:31.903392,15.27578220,.00010503,43.0030,80.9764,236.4371,123.6380,0,U,54831,999,18816,.9669429E-5,.4E-7,0
STARLINK-5386,2022-177Q,2026-05-22T03:37:38.049312,15.27586662,.00015526,43.0057,81.5857,274.1103,85.9571,0,U,54834,999,18816,.30735078E-4,.584E-5,0
STARLINK-5389,2022-177R,2026-05-22T04:56:59.220672,15.27575206,.00008307,43.0024,81.1495,263.6986,96.3771,0,U,54835,999,18816,.11615717E-4,.58E-6,0
STARLINK-5384,2022-177S,2026-05-22T05:09:13.661280,16.04090461,.00019055,42.9991,53.3066,274.2524,85.8138,0,U,54836,999,18849,.10277376E-2,.693751E-2,.23806412E-3
STARLINK-5369,2022-177T,2026-05-22T05:21:57.909888,16.19360832,.00063002,42.9938,60.0848,249.1093,110.9118,0,U,54837,999,18840,.81426894E-3,.1573305E-1,.8876511E-5
STARLINK-5372,2022-177U,2026-05-22T04:50:18.415392,15.27570554,.00009804,43.0070,77.7025,274.9567,85.1173,0,U,54838,999,18820,-.3633172E-4,-.1261E-4,0
STARLINK-5368,2022-177W,2026-05-22T04:41:03.952032,15.27572422,.00006648,43.0032,77.6512,263.9343,96.1433,0,U,54840,999,18820,.16941939E-4,.204E-5,0
STARLINK-4659,2022-177X,2026-05-21T22:39:13.087008,15.27575725,.00014176,43.0056,79.2053,276.3060,83.7630,0,U,54841,999,18816,-.6879997E-5,-.452E-5,0
STARLINK-5387,2022-177Y,2026-05-22T02:55:47.075232,15.27575741,.00008424,43.0035,77.9568,259.3773,100.6984,0,U,54842,999,18819,.7257337E-5,-.62E-6,0
STARLINK-5304,2022-177Z,2026-05-22T04:59:33.408384,15.27580960,.00015418,43.0063,77.7479,277.9846,82.0831,0,U,54843,999,18820,.86227875E-4,.2111E-4,0
STARLINK-5388,2022-177AA,2026-05-22T05:28:13.725696,15.27573083,.00015435,43.0054,80.4234,267.9280,92.1395,0,U,54844,999,18817,.7888572E-5,-.45E-6,0
STARLINK-5082,2022-177AB,2026-05-22T03:01:23.025216,15.27551922,.00007292,43.0022,77.9953,265.8219,94.2549,0,U,54845,999,18819,-.16314324E-3,-.4744E-4,0
STARLINK-5360,2022-177AC,2026-05-22T04:26:14.484768,15.27565480,.00006687,43.0027,77.5690,242.0014,118.0770,0,U,54846,999,18820,.35719056E-4,.721E-5,0
STARLINK-5061,2022-177AD,2026-05-22T03:21:42.785856,15.27577516,.00013782,43.0051,55.4776,261.3551,98.7144,0,U,54847,999,18845,.6053394E-5,-.96E-6,0
STARLINK-5432,2022-177AE,2026-05-22T03:29:06.481824,15.27576777,.00008851,43.0023,66.8369,235.2005,124.8763,0,U,54848,999,18832,.10525325E-4,.28E-6,0
STARLINK-5087,2022-177AG,2026-05-22T04:28:06.267360,15.27579752,.00017314,43.0072,66.2829,259.5735,100.4921,0,U,54850,999,18833,.24522638E-4,.412E-5,0
STARLINK-5084,2022-177AH,2026-05-22T04:22:33.544416,15.27584616,.00014468,43.0058,66.2554,295.8981,64.1722,0,U,54851,999,18833,.1058143E-5,-.233E-5,0
STARLINK-5418,2022-177AJ,2026-05-22T04:13:20.250912,15.27568363,.00012733,43.0059,66.2090,289.2998,70.7716,0,U,54852,999,18833,-.46458183E-4,-.154E-4,0
STARLINK-5427,2022-177AK,2026-05-22T04:31:48.293760,15.27578521,.00012113,43.0058,66.3037,257.0731,102.9985,0,U,54853,999,18833,.1253056E-4,.83E-6,0
STARLINK-5416,2022-177AM,2026-05-22T04:24:24.307488,15.27576490,.00015057,43.0075,66.2632,269.9235,90.1444,0,U,54855,999,18833,.3928701E-4,.819E-5,0
STARLINK-5086,2022-177AN,2026-05-22T03:36:30.618432,15.27574615,.00007857,43.0030,66.8657,217.0863,142.9935,0,U,54856,999,18832,.10462188E-4,.26E-6,0
STARLINK-5078,2022-177AP,2026-05-22T03:10:36.248736,15.27578705,.00011093,43.0027,66.7360,264.0326,96.0400,0,U,54857,999,18832,.29081658E-4,.538E-5,0
STARLINK-5407,2022-177AQ,2026-05-22T04:33:39.341952,15.27585428,.00013029,43.0056,66.3108,271.6145,88.4558,0,U,54858,999,18833,-.2989362E-5,-.344E-5,0
STARLINK-5409,2022-177AR,2026-05-22T03:30:57.657024,15.27579180,.0001101,43.0042,66.8379,248.7140,111.3594,0,U,54859,999,18832,.833006E-6,-.239E-5,0
STARLINK-5406,2022-177AS,2026-05-22T03:42:03.638592,15.27578936,.00008466,43.0016,66.8946,255.1153,104.9605,0,U,54860,999,18832,.56759645E-4,.13E-4,0
STARLINK-5400,2022-177AT,2026-05-22T04:18:50.983200,15.27577522,.00012325,43.0049,66.2383,272.7040,87.3670,0,U,54861,999,18833,.4478678E-4,.97E-5,0
STARLINK-5403,2022-177AU,2026-05-22T04:48:28.034208,15.27580134,.00013397,43.0043,66.4016,247.1690,112.9020,0,U,54862,999,18833,.18884062E-4,.258E-5,0
STARLINK-5405,2022-177AV,2026-05-22T03:21:43.378560,15.27582877,.00011819,43.0049,66.7906,233.3399,126.7344,0,U,54863,999,18832,.46896614E-4,.1029E-4,0
STARLINK-5359,2022-177AW,2026-05-22T03:53:09.646944,15.27574078,.00005507,43.0041,66.9463,245.4242,114.6552,0,U,54864,999,18832,.13193655E-4,.101E-5,0
STARLINK-5411,2022-177AX,2026-05-22T01:41:59.915904,15.27575425,.00011968,43.0039,67.1313,256.3951,103.6768,0,U,54865,999,18831,-.3165208E-5,-.349E-5,0
STARLINK-5398,2022-177AY,2026-05-22T04:09:36.209664,15.27576893,.00014825,43.0056,66.1810,285.6006,74.4682,0,U,54866,999,18833,-.48376781E-4,-.1593E-4,0
STARLINK-5396,2022-177AZ,2026-05-22T03:47:36.514464,15.27576189,.00009192,43.0024,66.9224,254.3312,105.7438,0,U,54867,999,18832,.578146E-5,-.103E-5,0
STARLINK-5379,2022-177BA,2026-05-22T04:20:42.210240,15.27583169,.00014182,43.0073,66.2334,263.9682,96.1008,0,U,54868,999,18833,-.32002129E-4,-.1143E-4,0
STARLINK-5402,2022-177BB,2026-05-22T04:07:57.273024,15.27579507,.00013276,43.0072,67.0259,266.4588,93.6112,0,U,54869,999,18832,.15186684E-4,.156E-5,0
STARLINK-5401,2022-177BC,2026-05-22T04:15:08.936928,15.27577269,.00014576,43.0050,66.2116,276.7917,83.2769,0,U,54870,999,18833,.13147304E-4,.1E-5,0
STARLINK-5397,2022-177BD,2026-05-22T02:28:15.026880,15.27576210,.00012221,43.0066,67.3637,269.9390,90.1321,0,U,54871,999,18831,-.1666451E-5,-.308E-5,0
STARLINK-5091,2022-177BF,2026-05-22T03:32:48.229152,15.27575883,.00009236,43.0012,66.8380,248.2461,111.8292,0,U,54873,999,18832,.722127E-5,-.63E-6,0
SHIYAN-10 02 (SY-10 02),2022-178A,2026-05-16T17:56:34.887264,2.00654160,.6943731,64.0454,324.2650,268.0051,18.0492,0,U,54878,999,1592,0,.796E-5,0
EROS C3,2022-179A,2026-05-22T04:13:01.917696,15.10766036,.00069096,139.3347,216.3762,148.8062,211.3156,0,U,54880,999,18839,.23508644E-3,.4222E-4,0
STAR VIBE,2023-001A,2026-05-22T06:45:46.584288,15.41819777,.00056155,97.3179,206.6543,189.8662,170.2476,0,U,55009,999,18823,.24520961E-3,.10311E-3,0
MENUT,2023-001B,2026-05-22T06:45:13.980384,15.56745600,.0005501,97.3158,209.4771,183.9322,176.1891,0,U,55010,999,18836,.71558061E-3,.51328E-3,0
BRO-8,2023-001C,2026-05-22T06:13:25.559040,15.47316850,.00058976,97.3223,207.1012,197.6013,162.5034,0,U,55011,999,18819,.45428153E-3,.23145E-3,0
CONNECTA T1.2,2023-001D,2026-05-21T22:55:03.850752,15.48626743,.00066771,97.3283,212.2176,176.4789,183.6510,0,U,55012,999,18848,.58142503E-3,.31064E-3,0
BIRKELAND,2023-001G,2026-05-22T06:46:52.955904,15.39563909,.00067801,97.3351,210.1946,183.2564,176.8639,0,U,55015,999,18836,.17507745E-3,.6806E-4,0
LYNK TOWER 4,2023-001AB,2026-05-22T03:17:25.386432,15.32940713,.00077405,97.3209,201.3128,199.8724,160.2218,0,U,55034,999,18783,.17674571E-3,.555E-4,0
SKYKRAFT-1,2023-001AJ,2026-05-22T07:08:00.176064,15.64084850,.00054729,97.3184,218.5450,155.0665,205.0859,0,U,55041,999,18900,.41543306E-3,.39319E-3,0
CONTINUUM-1,2023-001AN,2026-05-22T06:35:40.288704,15.29591807,.00107132,97.3349,205.6997,146.4802,213.7118,0,U,55045,999,18829,.29036948E-3,.8267E-4,0
LYNK TOWER 3,2023-001AP,2026-05-22T03:48:05.292576,15.35679481,.0007509,97.3208,202.5466,199.1435,160.9527,0,U,55046,999,18791,.24661313E-3,.8484E-4,0
NUSAT-33 (ALBANIA-2),2023-001AQ,2026-05-22T06:28:01.708608,15.27271808,.00081803,97.3081,203.6966,131.2674,228.9272,0,U,55047,999,18835,.25977636E-3,.6875E-4,0
NUSAT-35 (WILLIAMINA),2023-001AR,2026-05-22T06:43:39.612576,15.34366399,.00115835,97.1868,195.6793,184.3471,175.7674,0,U,55048,999,18843,.3088511E-3,.10225E-3,0
ICEYE-X21,2023-001AS,2026-05-22T06:53:45.887424,15.94712980,.00047804,97.3261,226.3998,184.0316,176.0922,0,U,55049,999,18947,.43357064E-3,.163965E-2,.12397312E-4
ION SCV-008,2023-001AU,2026-05-22T05:54:56.736864,15.28212785,.00165029,97.5693,238.1401,104.0209,256.2866,0,U,55051,999,18737,.1866845E-3,.5074E-4,0
EOSSAT-1,2023-001AW,2026-05-22T02:39:09.794592,15.33281449,.00088929,97.3248,202.9454,199.4962,160.5942,0,U,55053,999,18792,.12226591E-3,.3857E-4,0
SKYKRAFT-1A,2023-001AX,2026-05-22T03:49:29.926560,15.28968885,.00086492,97.3232,199.9341,215.4454,144.6212,0,U,55054,999,18774,.15227198E-3,.4213E-4,0
VIGORIDE-5,2023-001AZ,2026-05-22T03:37:18.830496,15.58982529,.00047475,97.3231,212.8260,213.6714,146.4242,0,U,55056,999,18860,.26912871E-3,.2084E-3,0
ION SCV-007,2023-001BD,2026-05-22T03:00:28.317600,14.77525794,.00136097,97.9019,205.6556,63.5964,296.6642,0,U,55060,999,18240,.46636828E-4,.282E-5,0
SKYKRAFT-1C,2023-001BE,2026-05-22T05:15:04.106592,15.24811108,.00091332,97.3207,196.4506,232.0830,127.9583,0,U,55061,999,18752,.96369886E-4,.2322E-4,0
YAM-5,2023-001BV,2026-05-22T03:18:50.820480,15.37941925,.00086539,97.3205,205.2466,190.9516,169.1542,0,U,55076,999,18810,.22321431E-3,.8256E-4,0
